DUPLEX                  
1 66906U 98067XS  26082.96622369  .00028808  00000+0  39510-3 0  9994
2 66906  51.6299 357.9930 0003139 174.3509 185.7519 15.57109631 17352
ISS OBJECT XT           
1 66907U 98067XT  26083.01619837  .00200709  00000+0  13304-2 0  9992
2 66907  51.6254 352.2978 0005370 171.7670 188.3418 15.74343929 17438
ISS OBJECT XU           
1 66908U 98067XU  26083.01308523  .00206767  00000+0  13578-2 0  9993
2 66908  51.6248 352.2719 0005614 172.3126 187.7961 15.74539149 17436
SILVERSAT               
1 66909U 98067XV  26082.98164823  .00288378  00000+0  15389-2 0  9992
2 66909  51.6221 351.3039 0006229 177.1516 182.9521 15.78994089 17444
ISS OBJECT XW           
1 66910U 98067XW  26082.95577542  .00177198  00000+0  12412-2 0  9998
2 66910  51.6238 352.6360 0005876 171.3926 188.7174 15.73130824 17423
ISS OBJECT XX           
1 66911U 98067XX  26083.00449696  .00392372  00000+0  16127-2 0  9994
2 66911  51.6198 349.9255 0007864 180.6946 179.4048 15.84339121 17458
ISS OBJECT XY           
1 66912U 98067XY  26083.01197627  .00103447  00000+0  96251-3 0  9990
2 66912  51.6277 354.5382 0004029 172.0225 188.0836 15.66564755 17392
KNACKSAT-2              
1 67683U 98067XZ  26083.01837906  .00038683  00000+0  61191-3 0  9991
2 67683  51.6326   0.5913 0009822 237.4563 122.5479 15.53013062  7018
CORAL                   
1 67684U 98067YA  26083.02687170  .00084434  00000+0  11500-2 0  9992
2 67684  51.6309 359.8982 0012271 226.7288 133.2681 15.56726858  7025
GXIBA-1                 
1 67685U 98067YB  26082.94566353  .00047226  00000+0  73089-3 0  9991
2 67685  51.6338   0.8611 0011822 234.4096 125.5793 15.53503062  7007
UITMSAT-2               
1 67686U 98067YC  26083.06244469  .00055892  00000+0  83755-3 0  9996
2 67686  51.6326   0.1380 0008812 205.0636 154.9928 15.54352229  7026
HMU-SAT2                
1 67687U 98067YD  26083.01414055  .00041357  00000+0  64805-3 0  9998
2 67687  51.6328   0.5652 0008396 207.9190 152.1351 15.53258522  6937
LEOPARD                 
1 67688U 98067YE  26083.06786206  .00050002  00000+0  76118-3 0  9991
2 67688  51.6323   0.1737 0008646 205.7190 154.3372 15.53969684  6943
CREW DRAGON 12          
1 67796U 26031A   26083.16360592  .00014170  00000+0  26927-3 0  9999
2 67796  51.6345   0.8084 0006267 226.2093 133.8378 15.48514008558508
PROGRESS-MS 33          
1 68319U 26058A   26082.05109224  .00200487  28256-4  35870-3 0  9993
2 68319  51.6358   6.8873 0011621 152.2903 207.8729 16.01170532    69
SL-4 R/B                
1 68320U 26058B   26083.14431863  .10751138  12561-4  27517-3 0  9999
2 68320  51.6482   0.7405 0007315  84.8434 275.3430 16.45417185   275
